[{"OBJECT_NAME":"PLEIADES 1B","OBJECT_ID":"2012-068A","EPOCH":"2026-03-15T07:13:24.862080","MEAN_MOTION":14.58531945,"ECCENTRICITY":0.00015791,"INCLINATION":98.2007,"RA_OF_ASC_NODE":150.6248,"ARG_OF_PERICENTER":83.2056,"MEAN_ANOMALY":276.9323,"EPHEMERIS_TYPE":0,"CLASSIFICATION_TYPE":"U","NORAD_CAT_ID":39019,"ELEMENT_SET_NO":999,"REV_AT_EPOCH":70716,"BSTAR":6.0860977e-5,"MEAN_MOTION_DOT":2.37e-6,"MEAN_MOTION_DDOT":0},{"OBJECT_NAME":"GOKTURK 2","OBJECT_ID":"2012-073A","EPOCH":"2026-03-15T07:00:59.294880","MEAN_MOTION":14.75441842,"ECCENTRICITY":8.936e-5,"INCLINATION":97.6889,"RA_OF_ASC_NODE":276.3949,"ARG_OF_PERICENTER":68.3724,"MEAN_ANOMALY":291.7581,"EPHEMERIS_TYPE":0,"CLASSIFICATION_TYPE":"U","NORAD_CAT_ID":39030,"ELEMENT_SET_NO":999,"REV_AT_EPOCH":71066,"BSTAR":5.3465804e-5,"MEAN_MOTION_DOT":3.16e-6,"MEAN_MOTION_DDOT":0},{"OBJECT_NAME":"LANDSAT 8","OBJECT_ID":"2013-008A","EPOCH":"2026-03-15T06:59:24.151200","MEAN_MOTION":14.57116282,"ECCENTRICITY":0.00012593,"INCLINATION":98.1908,"RA_OF_ASC_NODE":145.9247,"ARG_OF_PERICENTER":90.604,"MEAN_ANOMALY":269.5302,"EPHEMERIS_TYPE":0,"CLASSIFICATION_TYPE":"U","NORAD_CAT_ID":39084,"ELEMENT_SET_NO":999,"REV_AT_EPOCH":68422,"BSTAR":9.4210338e-5,"MEAN_MOTION_DOT":3.79e-6,"MEAN_MOTION_DDOT":0},{"OBJECT_NAME":"SARAL","OBJECT_ID":"2013-009A","EPOCH":"2026-03-15T06:10:49.125792","MEAN_MOTION":14.32830566,"ECCENTRICITY":0.00017969,"INCLINATION":98.5559,"RA_OF_ASC_NODE":262.0043,"ARG_OF_PERICENTER":165.4945,"MEAN_ANOMALY":194.6291,"EPHEMERIS_TYPE":0,"CLASSIFICATION_TYPE":"U","NORAD_CAT_ID":39086,"ELEMENT_SET_NO":999,"REV_AT_EPOCH":68215,"BSTAR":6.002735e-5,"MEAN_MOTION_DOT":1.2e-6,"MEAN_MOTION_DDOT":0},{"OBJECT_NAME":"GAOFEN-1","OBJECT_ID":"2013-018A","EPOCH":"2026-03-15T06:32:43.383840","MEAN_MOTION":14.76555446,"ECCENTRICITY":0.00167011,"INCLINATION":97.9168,"RA_OF_ASC_NODE":148.2215,"ARG_OF_PERICENTER":205.4553,"MEAN_ANOMALY":154.5836,"EPHEMERIS_TYPE":0,"CLASSIFICATION_TYPE":"U","NORAD_CAT_ID":39150,"ELEMENT_SET_NO":999,"REV_AT_EPOCH":69438,"BSTAR":6.0668097e-5,"MEAN_MOTION_DOT":3.73e-6,"MEAN_MOTION_DDOT":0},{"OBJECT_NAME":"VNREDSAT 1","OBJECT_ID":"2013-021B","EPOCH":"2026-03-15T07:19:42.571776","MEAN_MOTION":14.64898199,"ECCENTRICITY":0.00015692,"INCLINATION":97.9208,"RA_OF_ASC_NODE":131.2701,"ARG_OF_PERICENTER":83.2822,"MEAN_ANOMALY":276.856,"EPHEMERIS_TYPE":0,"CLASSIFICATION_TYPE":"U","NORAD_CAT_ID":39160,"ELEMENT_SET_NO":999,"REV_AT_EPOCH":68654,"BSTAR":8.5261406e-5,"MEAN_MOTION_DOT":4.1e-6,"MEAN_MOTION_DDOT":0},{"OBJECT_NAME":"ARIRANG-5 (KOMPSAT-5)","OBJECT_ID":"2013-042A","EPOCH":"2026-03-15T07:44:53.826144","MEAN_MOTION":15.04493294,"ECCENTRICITY":0.00047703,"INCLINATION":97.6214,"RA_OF_ASC_NODE":262.3279,"ARG_OF_PERICENTER":99.544,"MEAN_ANOMALY":260.6326,"EPHEMERIS_TYPE":0,"CLASSIFICATION_TYPE":"U","NORAD_CAT_ID":39227,"ELEMENT_SET_NO":999,"REV_AT_EPOCH":68974,"BSTAR":0.00020508503,"MEAN_MOTION_DOT":2.81e-5,"MEAN_MOTION_DDOT":0},{"OBJECT_NAME":"SKYSAT-A","OBJECT_ID":"2013-066C","EPOCH":"2026-03-15T01:27:40.419072","MEAN_MOTION":15.12397779,"ECCENTRICITY":0.00199409,"INCLINATION":97.3946,"RA_OF_ASC_NODE":126.4376,"ARG_OF_PERICENTER":280.5132,"MEAN_ANOMALY":79.3852,"EPHEMERIS_TYPE":0,"CLASSIFICATION_TYPE":"U","NORAD_CAT_ID":39418,"ELEMENT_SET_NO":999,"REV_AT_EPOCH":67425,"BSTAR":0.00021849424,"MEAN_MOTION_DOT":3.746e-5,"MEAN_MOTION_DDOT":0},{"OBJECT_NAME":"DUBAISAT-2","OBJECT_ID":"2013-066D","EPOCH":"2026-03-15T07:00:20.186784","MEAN_MOTION":15.09432597,"ECCENTRICITY":0.00115601,"INCLINATION":97.4537,"RA_OF_ASC_NODE":66.967,"ARG_OF_PERICENTER":6.9973,"MEAN_ANOMALY":353.1415,"EPHEMERIS_TYPE":0,"CLASSIFICATION_TYPE":"U","NORAD_CAT_ID":39419,"ELEMENT_SET_NO":999,"REV_AT_EPOCH":67222,"BSTAR":0.00058317698,"MEAN_MOTION_DOT":9.286e-5,"MEAN_MOTION_DDOT":0},{"OBJECT_NAME":"GPM-CORE","OBJECT_ID":"2014-009C","EPOCH":"2026-03-15T06:40:03.075168","MEAN_MOTION":15.44818903,"ECCENTRICITY":0.00123834,"INCLINATION":64.9718,"RA_OF_ASC_NODE":262.7673,"ARG_OF_PERICENTER":267.5829,"MEAN_ANOMALY":92.3894,"EPHEMERIS_TYPE":0,"CLASSIFICATION_TYPE":"U","NORAD_CAT_ID":39574,"ELEMENT_SET_NO":999,"REV_AT_EPOCH":68330,"BSTAR":0.00019962417,"MEAN_MOTION_DOT":9.186e-5,"MEAN_MOTION_DDOT":0},{"OBJECT_NAME":"SENTINEL-1A","OBJECT_ID":"2014-016A","EPOCH":"2026-03-15T06:54:01.633824","MEAN_MOTION":14.59199469,"ECCENTRICITY":0.00013567,"INCLINATION":98.1822,"RA_OF_ASC_NODE":83.178,"ARG_OF_PERICENTER":83.1785,"MEAN_ANOMALY":276.9569,"EPHEMERIS_TYPE":0,"CLASSIFICATION_TYPE":"U","NORAD_CAT_ID":39634,"ELEMENT_SET_NO":999,"REV_AT_EPOCH":63632,"BSTAR":3.2317258e-5,"MEAN_MOTION_DOT":1.07e-6,"MEAN_MOTION_DDOT":0},{"OBJECT_NAME":"KAZEOSAT 1","OBJECT_ID":"2014-024A","EPOCH":"2026-03-15T06:45:46.261152","MEAN_MOTION":14.42038484,"ECCENTRICITY":0.0001013,"INCLINATION":98.3275,"RA_OF_ASC_NODE":149.0412,"ARG_OF_PERICENTER":88.2308,"MEAN_ANOMALY":271.8998,"EPHEMERIS_TYPE":0,"CLASSIFICATION_TYPE":"U","NORAD_CAT_ID":39731,"ELEMENT_SET_NO":999,"REV_AT_EPOCH":62502,"BSTAR":5.0660855e-5,"MEAN_MOTION_DOT":1.24e-6,"MEAN_MOTION_DDOT":0},{"OBJECT_NAME":"ALOS-2","OBJECT_ID":"2014-029A","EPOCH":"2026-03-15T06:20:56.547168","MEAN_MOTION":14.79528989,"ECCENTRICITY":0.00014062,"INCLINATION":97.9189,"RA_OF_ASC_NODE":172.7809,"ARG_OF_PERICENTER":95.5657,"MEAN_ANOMALY":264.5715,"EPHEMERIS_TYPE":0,"CLASSIFICATION_TYPE":"U","NORAD_CAT_ID":39766,"ELEMENT_SET_NO":999,"REV_AT_EPOCH":63769,"BSTAR":0.00032435655,"MEAN_MOTION_DOT":2.375e-5,"MEAN_MOTION_DDOT":0},{"OBJECT_NAME":"KAZEOSAT 2","OBJECT_ID":"2014-033A","EPOCH":"2026-03-15T07:49:30.492768","MEAN_MOTION":14.85348498,"ECCENTRICITY":0.00070683,"INCLINATION":97.5489,"RA_OF_ASC_NODE":278.8563,"ARG_OF_PERICENTER":270.8672,"MEAN_ANOMALY":89.1734,"EPHEMERIS_TYPE":0,"CLASSIFICATION_TYPE":"U","NORAD_CAT_ID":40010,"ELEMENT_SET_NO":999,"REV_AT_EPOCH":63502,"BSTAR":0.00014687869,"MEAN_MOTION_DOT":1.213e-5,"MEAN_MOTION_DDOT":0},{"OBJECT_NAME":"HODOYOSHI-4","OBJECT_ID":"2014-033B","EPOCH":"2026-03-15T07:03:00.122688","MEAN_MOTION":14.87868881,"ECCENTRICITY":0.00221796,"INCLINATION":97.5459,"RA_OF_ASC_NODE":263.6545,"ARG_OF_PERICENTER":256.4361,"MEAN_ANOMALY":103.4385,"EPHEMERIS_TYPE":0,"CLASSIFICATION_TYPE":"U","NORAD_CAT_ID":40011,"ELEMENT_SET_NO":999,"REV_AT_EPOCH":63484,"BSTAR":0.00025536719,"MEAN_MOTION_DOT":2.294e-5,"MEAN_MOTION_DDOT":0},{"OBJECT_NAME":"DEIMOS-2","OBJECT_ID":"2014-033D","EPOCH":"2026-03-15T06:09:56.115072","MEAN_MOTION":14.93432243,"ECCENTRICITY":7.307e-5,"INCLINATION":97.5971,"RA_OF_ASC_NODE":311.9884,"ARG_OF_PERICENTER":67.5798,"MEAN_ANOMALY":292.5499,"EPHEMERIS_TYPE":0,"CLASSIFICATION_TYPE":"U","NORAD_CAT_ID":40013,"ELEMENT_SET_NO":999,"REV_AT_EPOCH":62370,"BSTAR":0.00026634598,"MEAN_MOTION_DOT":2.744e-5,"MEAN_MOTION_DDOT":0},{"OBJECT_NAME":"HODOYOSHI-3","OBJECT_ID":"2014-033F","EPOCH":"2026-03-15T04:55:43.225824","MEAN_MOTION":14.8515548,"ECCENTRICITY":0.00317799,"INCLINATION":97.631,"RA_OF_ASC_NODE":241.0904,"ARG_OF_PERICENTER":305.5177,"MEAN_ANOMALY":54.3075,"EPHEMERIS_TYPE":0,"CLASSIFICATION_TYPE":"U","NORAD_CAT_ID":40015,"ELEMENT_SET_NO":999,"REV_AT_EPOCH":63367,"BSTAR":0.00015992346,"MEAN_MOTION_DOT":1.328e-5,"MEAN_MOTION_DDOT":0}]
