PLEIADES 1B             
1 39019U 12068A   26074.30098220  .00000237  00000+0  60861-4 0  9998
2 39019  98.2007 150.6248 0001579  83.2056 276.9323 14.58531945707160
GOKTURK 2               
1 39030U 12073A   26074.29235295  .00000316  00000+0  53466-4 0  9991
2 39030  97.6889 276.3949 0000893  68.3724 291.7581 14.75441842710667
LANDSAT 8               
1 39084U 13008A   26074.29125175  .00000379  00000+0  94210-4 0  9995
2 39084  98.1908 145.9247 0001259  90.6040 269.5302 14.57116282684225
SARAL                   
1 39086U 13009A   26074.25751303  .00000120  00000+0  60027-4 0  9995
2 39086  98.5559 262.0043 0001796 165.4945 194.6291 14.32830566682155
GAOFEN-1                
1 39150U 13018A   26074.27272435  .00000373  00000+0  60668-4 0  9994
2 39150  97.9168 148.2215 0016701 205.4553 154.5836 14.76555446694381
VNREDSAT 1              
1 39160U 13021B   26074.30535384  .00000410  00000+0  85261-4 0  9996
2 39160  97.9208 131.2701 0001569  83.2822 276.8560 14.64898199686549
ARIRANG-5 (KOMPSAT-5)   
1 39227U 13042A   26074.32284521  .00002810  00000+0  20509-3 0  9998
2 39227  97.6214 262.3279 0004770  99.5440 260.6326 15.04493294689744
SKYSAT-A                
1 39418U 13066C   26074.06088448  .00003746  00000+0  21849-3 0  9994
2 39418  97.3946 126.4376 0019940 280.5132  79.3852 15.12397779674257
DUBAISAT-2              
1 39419U 13066D   26074.29190031  .00009286  00000+0  58318-3 0  9998
2 39419  97.4537  66.9670 0011560   6.9973 353.1415 15.09432597672220
GPM-CORE                
1 39574U 14009C   26074.27781337  .00009186  00000+0  19962-3 0  9992
2 39574  64.9718 262.7673 0012383 267.5829  92.3894 15.44818903683302
SENTINEL-1A             
1 39634U 14016A   26074.28751891  .00000107  00000+0  32317-4 0  9994
2 39634  98.1822  83.1780 0001356  83.1785 276.9569 14.59199469636322
KAZEOSAT 1              
1 39731U 14024A   26074.28178543  .00000124  00000+0  50661-4 0  9999
2 39731  98.3275 149.0412 0001013  88.2308 271.8998 14.42038484625021
ALOS-2                  
1 39766U 14029A   26074.26454337  .00002375  00000+0  32436-3 0  9997
2 39766  97.9189 172.7809 0001406  95.5657 264.5715 14.79528989637691
KAZEOSAT 2              
1 40010U 14033A   26074.32604737  .00001213  00000+0  14688-3 0  9993
2 40010  97.5489 278.8563 0007068 270.8672  89.1734 14.85348498635023
HODOYOSHI-4             
1 40011U 14033B   26074.29375142  .00002294  00000+0  25537-3 0  9990
2 40011  97.5459 263.6545 0022179 256.4361 103.4385 14.87868881634844
DEIMOS-2                
1 40013U 14033D   26074.25689948  .00002744  00000+0  26635-3 0  9990
2 40013  97.5971 311.9884 0000730  67.5798 292.5499 14.93432243623707
HODOYOSHI-3             
1 40015U 14033F   26074.20536141  .00001328  00000+0  15992-3 0  9994
2 40015  97.6310 241.0904 0031779 305.5177  54.3075 14.85155480633673
